     2.100          NAVIGATION                              RINEX VERSION / TYPE
fic2rin                                 11/07/2011 00:22:33 PGM / RUN BY / DATE
                                                            END OF HEADER
 1 11 11  6  2  0  0.0  .766660086811D-04  .231921148952D-10  .000000000000D+00
     .390000000000D+02  .887500000000D+01  .436089593453D-08 -.919500696506D+00
     .512227416039D-06  .468061305583D-03  .108238309622D-04  .515366870689D+04
     .720000000000D+04  .298023223877D-07  .240040021140D+01 -.558793544769D-08
     .960351655438D+00  .172000000000D+03  .137853906228D+01 -.788961434839D-08
    -.142863093678D-10  .100000000000D+01  .166100000000D+04  .000000000000D+00
     .240000000000D+01  .000000000000D+00  .791624188423D-08  .390000000000D+02
     .600000000000D+01  .400000000000D+01
 2 11 11  6  2  0  0.0  .364253297448D-03  .181898940355D-11  .000000000000D+00
     .920000000000D+02  .189062500000D+02  .486877423256D-08  .122354956122D+01
     .895932316780D-06  .106054288335D-01  .108052045107D-04  .515359991455D+04
     .720000000000D+04 -.782310962677D-07  .239107986084D+01  .169500708580D-06
     .938930514659D+00  .160000000000D+03 -.291762550156D+01 -.817641200895D-08
    -.156792245312D-09  .100000000000D+01  .166100000000D+04  .000000000000D+00
     .240000000000D+01  .000000000000D+00 -.176951289177D-07  .920000000000D+02
     .600000000000D+01  .400000000000D+01
 3 11 11  6  2  0  0.0  .791152007878D-03  .511590769747D-11  .000000000000D+00
     .112000000000D+03 -.429375000000D+02  .552808740989D-08  .137825940062D+01
    -.240840017796D-05  .149096475216D-01  .550225377083D-05  .515368088722D+04
     .720000000000D+04 -.240281224251D-06  .123014232005D+01 -.130385160446D-06
     .929405648150D+00  .261281250000D+03  .115424639927D+01 -.879929509739D-08
    -.247867467532D-09  .100000000000D+01  .166100000000D+04  .000000000000D+00
     .240000000000D+01  .000000000000D+00 -.465661287308D-08  .112000000000D+03
     .600000000000D+01  .400000000000D+01
 4 11 11  6  2  0  0.0  .282240565866D-03  .112549969344D-10  .000000000000D+00
     .105000000000D+03  .216250000000D+02  .483162982820D-08 -.188362200218D+01
     .854954123497D-06  .995447544847D-02  .100918114185D-04  .515373811722D+04
     .720000000000D+04  .931322574615D-07  .240823336383D+01 -.987201929092D-07
     .938021479308D+00  .166156250000D+03  .793242834845D+00 -.802604860285D-08
     .889322758148D-10  .100000000000D+01  .166100000000D+04  .000000000000D+00
     .340000000000D+01  .000000000000D+00 -.651925802231D-08  .105000000000D+03
     .600000000000D+01  .400000000000D+01
 5 11 11  6  2  0  0.0 -.241442117840D-03 -.500222085975D-11  .000000000000D+00
     .900000000000D+01  .681562500000D+02  .498556481164D-08 -.308394347156D+01
     .363588333130D-05  .258606486022D-02  .578723847866D-05  .515378982925D+04
     .720000000000D+04 -.204890966415D-07 -.283004918933D+01 -.353902578354D-07
     .953042752868D+00  .266031250000D+03  .190189614138D+00 -.831213194795D-08
     .291797868838D-09  .100000000000D+01  .166100000000D+04  .000000000000D+00
     .240000000000D+01  .000000000000D+00 -.102445483208D-07  .900000000000D+01
     .600000000000D+01  .400000000000D+01
 6 11 11  6  2  0  0.0 -.366629101336D-04  .613908923697D-11  .000000000000D+00
     .480000000000D+02 -.452812500000D+02  .521307428833D-08 -.293836605335D+01
    -.224262475967D-05  .668221118394D-02  .547617673874D-05  .515370158577D+04
     .720000000000D+04  .353902578354D-07  .130515667761D+01  .707805156708D-07
     .936406185145D+00  .258968750000D+03 -.654580457766D+00 -.841535053313D-08
    -.220366321999D-09  .100000000000D+01  .166100000000D+04  .000000000000D+00
     .340000000000D+01  .000000000000D+00 -.512227416039D-08  .480000000000D+02
     .600000000000D+01  .400000000000D+01
 7 11 11  6  2  0  0.0  .357469543815D-04  .216004991671D-11  .000000000000D+00
     .500000000000D+02 -.265312500000D+02  .400195241167D-08 -.300296326239D+00
    -.155903398991D-05  .508857460227D-02  .993534922600D-05  .515363513947D+04
     .720000000000D+04  .800937414169D-07 -.721633735102D+00  .372529029846D-08
     .975429577574D+00  .197000000000D+03 -.303433879120D+01 -.783354058412D-08
    -.116076263614D-09  .100000000000D+01  .166100000000D+04  .000000000000D+00
     .240000000000D+01  .000000000000D+00 -.111758708954D-07  .500000000000D+02
     .600000000000D+01  .400000000000D+01
 8 11 11  6  2  0  0.0  .270083546638D-07  .000000000000D+00  .000000000000D+00
     .640000000000D+02 -.139375000000D+02  .352550399425D-08 -.817420818412D+00
    -.881031155586D-06  .121562868590D-01  .102128833532D-04  .515373938179D+04
     .720000000000D+04  .214204192162D-06 -.642689998595D+00 -.154599547386D-06
     .997387704378D+00  .201906250000D+03 -.300799218665D+01 -.755531470918D-08
    -.642883921553D-11  .100000000000D+01  .166100000000D+04  .000000000000D+00
     .240000000000D+01  .000000000000D+00 -.419095158577D-08  .640000000000D+02
     .600000000000D+01  .400000000000D+01
 9 11 11  6  2  0  0.0  .116502866149D-03  .250111042988D-11  .000000000000D+00
     .160000000000D+02 -.130937500000D+02  .390337687703D-08 -.967508764166D+00
    -.668689608574D-06  .171677916078D-01  .108759850264D-04  .515366002846D+04
     .720000000000D+04 -.270083546638D-06 -.748861684889D+00  .156462192535D-06
     .984247077841D+00  .183843750000D+03  .160139959578D+01 -.800711924294D-08
    -.367872466222D-10  .100000000000D+01  .166100000000D+04  .000000000000D+00
     .240000000000D+01  .000000000000D+00 -.558793544769D-08  .160000000000D+02
     .600000000000D+01  .400000000000D+01
10 11 11  6  2  0  0.0 -.182520598173D-04 -.102318153949D-11  .000000000000D+00
     .310000000000D+02  .681250000000D+02  .501949479639D-08 -.276044785102D+01
     .329501926899D-05  .107029915089D-01  .557675957680D-05  .515364466095D+04
     .720000000000D+04  .540167093277D-07 -.280731331091D+01 -.210478901863D-06
     .947947606691D+00  .266812500000D+03  .714597320041D+00 -.827605901679D-08
     .301083969927D-09  .100000000000D+01  .166100000000D+04  .000000000000D+00
     .240000000000D+01  .000000000000D+00 -.279396772385D-08  .310000000000D+02
     .600000000000D+01  .400000000000D+01
11 11 11  6  2  0  0.0 -.201359391212D-03 -.341060513165D-11  .000000000000D+00
     .420000000000D+02 -.196562500000D+02  .618240037893D-08 -.115773604698D+00
    -.951811671257D-06  .125656236196D-01  .972487032413D-05  .515367181587D+04
     .720000000000D+04 -.242143869400D-07  .214545083608D+01  .216066837311D-06
     .887892967483D+00  .156593750000D+03  .995981077924D+00 -.896751639020D-08
    -.131434046184D-09  .100000000000D+01  .166100000000D+04  .000000000000D+00
     .240000000000D+01  .000000000000D+00 -.116415321827D-07  .420000000000D+02
     .600000000000D+01  .400000000000D+01
12 11 11  6  2  0  0.0  .329739414155D-04  .238742359215D-11  .000000000000D+00
     .460000000000D+02  .225312500000D+02  .433339478900D-08 -.467096016150D+00
     .110082328320D-05  .358203635551D-02  .670552253723D-05  .515362737274D+04
     .720000000000D+04  .987201929092D-07  .333309239279D+00 -.596046447754D-07
     .977399589873D+00  .261625000000D+03 -.691475820801D-01 -.805747848346D-08
     .242510101519D-09  .100000000000D+01  .166100000000D+04  .000000000000D+00
     .240000000000D+01  .000000000000D+00 -.121071934700D-07  .460000000000D+02
     .600000000000D+01  .400000000000D+01
13 11 11  6  2  0  0.0  .242936424911D-03 -.193267624127D-11  .000000000000D+00
     .480000000000D+02 -.467500000000D+02  .411231415153D-08  .214274254169D+01
    -.243820250034D-05  .456540205050D-02  .553764402866D-05  .515375941277D+04
     .720000000000D+04  .298023223877D-07 -.169459570196D+01 -.931322574615D-07
     .987727885140D+00  .282812500000D+03  .195505481590D+01 -.793997358891D-08
    -.351443210449D-09  .100000000000D+01  .166100000000D+04  .000000000000D+00
     .340000000000D+01  .000000000000D+00 -.116415321827D-07  .480000000000D+02
     .600000000000D+01  .400000000000D+01
14 11 11  6  2  0  0.0  .179985072464D-03  .159161572810D-11  .000000000000D+00
     .550000000000D+02 -.552500000000D+02  .427017787005D-08  .218271648123D+01
    -.298395752907D-05  .632822711486D-02  .555254518986D-05  .515373353004D+04
     .720000000000D+04 -.186264514923D-08 -.171991154028D+01 -.139698386192D-06
     .980676274749D+00  .283031250000D+03 -.206798599564D+01 -.800997650482D-08
    -.355014787791D-09  .100000000000D+01  .166100000000D+04  .000000000000D+00
     .240000000000D+01  .000000000000D+00 -.884756445885D-08  .550000000000D+02
     .600000000000D+01  .400000000000D+01
15 11 11  6  2  0  0.0 -.100213102996D-03  .113686837722D-11  .000000000000D+00
     .960000000000D+02 -.422812500000D+02  .518807324693D-08  .189239833154D+01
    -.199675559998D-05  .389031134546D-02  .488571822643D-05  .515371117020D+04
     .720000000000D+04  .931322574615D-07 -.180109413539D+01  .154599547386D-06
     .947709345613D+00  .277531250000D+03 -.710216357305D-01 -.856464246602D-08
    -.323942064916D-09  .100000000000D+01  .166100000000D+04  .000000000000D+00
     .240000000000D+01  .000000000000D+00 -.102445483208D-07  .960000000000D+02
     .600000000000D+01  .400000000000D+01
16 11 11  6  2  0  0.0 -.207342207432D-03 -.204636307899D-11  .000000000000D+00
     .840000000000D+02  .296562500000D+02  .425446292974D-08 -.282922229537D+01
     .151060521603D-05  .614961842075D-02  .665895640850D-05  .515354652786D+04
     .720000000000D+04 -.856816768646D-07  .351294509215D+00  .279396772385D-07
     .978317120389D+00  .262031250000D+03 -.735610435413D-01 -.792640159501D-08
     .302512600864D-09  .100000000000D+01  .166100000000D+04  .000000000000D+00
     .240000000000D+01  .000000000000D+00 -.977888703346D-08  .840000000000D+02
     .600000000000D+01  .400000000000D+01
